NORAD_CAT_ID,OBJECT_NAME,OBJECT_TYPE,EPOCH,MEAN_MOTION,ECCENTRICITY,INCLINATION,RA_OF_ASC_NODE,ARG_OF_PERICENTER,MEAN_ANOMALY,BSTAR,MEAN_MOTION_DOT,MEAN_MOTION_DDOT,TLE_LINE0,TLE_LINE1,TLE_LINE2,SEMIMAJOR_AXIS,PERIOD,APOGEE,PERIGEE,DECAYED
53434.0,STARLINK-4498,PAYLOAD,2022-08-26 22:00:00,15.731875099999998,0.0001284,53.2197,165.2587,82.4341,22.614,1.7695999999999998e-05,1.863e-05,0.0,0 STARLINK-4498,1 53434U 22097AY  22238.91667824  .00001863  00000-0  17696-4 0  9990,2 53434  53.2197 165.2587 0001284  82.4341  22.6140 15.73187510  1306,6727.931,91.534,350.66,348.932,0.0
53434.0,STARLINK-4498,PAYLOAD,2022-08-27 14:00:01,15.73224459,0.0001105,53.2195,161.9597,81.9498,200.9427,-4.1614e-05,-6.461e-05,0.0,0 STARLINK-4498,1 53434U 22097AY  22239.58334491 -.00006461  00000-0 -41614-4 0  9993,2 53434  53.2195 161.9597 0001105  81.9498 200.9427 15.73224459  1300,6727.825,91.532,350.434,348.94699999999995,0.0
53434.0,STARLINK-4498,PAYLOAD,2022-08-27 22:00:00,15.73211737,0.0001082,53.2197,160.3107,80.7207,291.1305,-0.0001335,-0.00019321,0.0,0 STARLINK-4498,1 53434U 22097AY  22239.91667824 -.00019321  00000-0 -13350-3 0  9993,2 53434  53.2197 160.3107 0001082  80.7207 291.1305 15.73211737  1303,6727.861999999999,91.532,350.455,348.999,0.0
53434.0,STARLINK-4498,PAYLOAD,2022-08-28 06:00:00,15.73218412,0.0001145,53.2192,158.6628,69.4085,31.3877,0.00014648,0.00020002,0.0,0 STARLINK-4498,1 53434U 22097AY  22240.25001157  .00020002  00000-0  14648-3 0  9990,2 53434  53.2192 158.6628 0001145  69.4085  31.3877 15.73218412  3277,6727.843000000003,91.532,350.478,348.93699999999984,0.0
53434.0,STARLINK-4498,PAYLOAD,2022-08-28 14:00:01,15.73149696,0.0001227,53.2193,157.0111,84.001,105.7523,0.00052743,0.00073894,0.0,0 STARLINK-4498,1 53434U 22097AY  22240.58334491  .00073894  00000-0  52743-3 0  9991,2 53434  53.2193 157.0111 0001227  84.0010 105.7523 15.73149696  3327,6728.0390000000025,91.536,350.72900000000016,349.07800000000015,0.0
53434.0,STARLINK-4498,PAYLOAD,2022-08-28 22:00:00,15.73226799,0.000117,53.2192,155.3631,84.5109,194.1204,-0.00041304,-0.00058252,0.0,0 STARLINK-4498,1 53434U 22097AY  22240.91667824 -.00058252  00000-0 -41304-3 0  9991,2 53434  53.2192 155.3631 0001170  84.5109 194.1204 15.73226799  1309,6727.819,91.532,350.471,348.897,0.0
53434.0,STARLINK-4498,PAYLOAD,2022-08-29 06:00:02,15.73153551,0.0001027,53.219,153.7148,71.3643,296.2796,0.00033028,0.00045893,0.0,0 STARLINK-4498,1 53434U 22097AY  22241.25002315  .00045893  00000-0  33028-3 0  9996,2 53434  53.2190 153.7148 0001027  71.3643 296.2796 15.73153551  3420,6728.028,91.536,350.584,349.202,0.0
53434.0,STARLINK-4498,PAYLOAD,2022-08-29 14:00:01,15.73158073,9.12e-05,53.2194,152.0634,85.8513,10.6849,0.00054736,0.00076764,0.0,0 STARLINK-4498,1 53434U 22097AY  22241.58334491  .00076764  00000-0  54736-3 0  9995,2 53434  53.2194 152.0634 0000912  85.8513  10.6849 15.73158073  1300,6728.015,91.536,350.49300000000005,349.266,0.0
53434.0,STARLINK-4498,PAYLOAD,2022-08-29 16:00:00,15.73171992,8.950000000000001e-05,53.2193,151.6506,87.5927,121.1698,0.00053801,0.00075475,0.0,0 STARLINK-4498,1 53434U 22097AY  22241.66667824  .00075475  00000-0  53801-3 0  9993,2 53434  53.2193 151.6506 0000895  87.5927 121.1698 15.73171992  3497,6727.975,91.535,350.44199999999995,349.23800000000006,0.0
53434.0,STARLINK-4498,PAYLOAD,2022-08-29 22:00:00,15.73250087,9.05e-05,53.2195,150.4148,79.7643,105.6817,-0.00067207,-0.00094088,0.0,0 STARLINK-4498,1 53434U 22097AY  22241.91667824 -.00094088  00000-0 -67207-3 0  9999,2 53434  53.2195 150.4148 0000905  79.7643 105.6817 15.73250087  1309,6727.752,91.53,350.226,349.009,0.0
53434.0,STARLINK-4498,PAYLOAD,2022-08-30 06:00:00,15.73168115,7.809999999999999e-05,53.219,148.7664,62.8019,211.5992,0.00046034,0.00064393,0.0,0 STARLINK-4498,1 53434U 22097AY  22242.25001157  .00064393  00000-0  46034-3 0  9997,2 53434  53.2190 148.7664 0000781  62.8019 211.5992 15.73168115  3582,6727.986,91.535,350.37699999999984,349.326,0.0
53434.0,STARLINK-4498,PAYLOAD,2022-08-30 14:00:01,15.73211468,7.7e-05,53.2189,147.115,85.85600000000002,277.4669,-0.00020871,-0.00029819,0.0,0 STARLINK-4498,1 53434U 22097AY  22242.58334491 -.00029819  00000-0 -20871-3 0  9990,2 53434  53.2189 147.1150 0000770  85.8560 277.4669 15.73211468  1307,6727.861999999999,91.533,350.246,349.209,0.0
53434.0,STARLINK-4498,PAYLOAD,2022-08-30 22:00:00,15.73182424,9.75e-05,53.2188,145.4669,81.6709,10.5788,4.4547e-05,5.632e-05,0.0,0 STARLINK-4498,1 53434U 22097AY  22242.91667824  .00005632  00000-0  44547-4 0  9998,2 53434  53.2188 145.4669 0000975  81.6709  10.5788 15.73182424  1305,6727.945,91.534,350.466,349.154,0.0
53434.0,STARLINK-4498,PAYLOAD,2022-08-31 14:00:01,15.73167023,0.0001171,53.2189,142.1667,86.5577,183.5428,-2.3012e-05,-3.843e-05,0.0,0 STARLINK-4498,1 53434U 22097AY  22243.58334491 -.00003843  00000-0 -23012-4 0  9991,2 53434  53.2189 142.1667 0001171  86.5577 183.5428 15.73167023  1304,6727.989000000001,91.535,350.642,349.066,0.0
53434.0,STARLINK-4498,PAYLOAD,2022-08-31 20:00:01,15.73168221,0.0001372,53.2192,140.9304,85.6552,161.115,-0.00025683,-0.00036459,0.0,0 STARLINK-4498,1 53434U 22097AY  22243.83334491 -.00036459  00000-0 -25683-3 0  9993,2 53434  53.2192 140.9304 0001372  85.6552 161.1150 15.73168221  3833,6727.986,91.535,350.774,348.92800000000005,0.0
53434.0,STARLINK-4498,PAYLOAD,2022-08-31 22:00:00,15.73142569,0.0001385999999999,53.2191,140.5186,83.1038,275.8933,7.3184e-05,9.638e-05,0.0,0 STARLINK-4498,1 53434U 22097AY  22243.91667824  .00009638  00000-0  73184-4 0  9998,2 53434  53.2191 140.5186 0001386  83.1038 275.8933 15.73142569  1302,6728.059,91.537,350.856,348.991,0.0
53434.0,STARLINK-4498,PAYLOAD,2022-09-01 06:00:00,15.73172892,0.0001250999999999,53.2186,138.8699,75.2245,12.6238,0.00085216,0.00120564,0.0,0 STARLINK-4498,1 53434U 22097AY  22244.25001157  .00120564  00000-0  85216-3 0  9997,2 53434  53.2186 138.8699 0001251  75.2245  12.6238 15.73172892  3903,6727.972,91.535,350.67900000000014,348.996,0.0
53434.0,STARLINK-4498,PAYLOAD,2022-09-01 14:00:01,15.73248295,9.61e-05,53.2185,137.2185,89.1194,87.7426,-0.00012119,-0.00017627,0.0,0 STARLINK-4498,1 53434U 22097AY  22244.58335648 -.00017627  00000-0 -12119-3 0  9997,2 53434  53.2185 137.2185 0000961  89.1194  87.7426 15.73248295  1304,6727.757,91.53,350.269,348.976,0.0
53434.0,STARLINK-4498,PAYLOAD,2022-09-01 22:00:00,15.73225926,8.909999999999997e-05,53.2185,135.5707,79.6823,186.0962,0.00010271,0.00013834,0.0,0 STARLINK-4498,1 53434U 22097AY  22244.91667824  .00013834  00000-0  10271-3 0  9999,2 53434  53.2185 135.5707 0000891  79.6823 186.0962 15.73225926  1304,6727.821,91.532,350.286,349.087,0.0
53434.0,STARLINK-4498,PAYLOAD,2022-09-02 14:00:01,15.7320094,0.0001175,53.2188,132.27,88.0296,355.6835,-0.00020633,-0.00029476,0.0,0 STARLINK-4498,1 53434U 22097AY  22245.58334491 -.00029476  00000-0 -20633-3 0  9998,2 53434  53.2188 132.2700 0001175  88.0296 355.6835 15.73200940  1300,6727.892,91.533,350.548,348.967,0.0
53434.0,STARLINK-4498,PAYLOAD,2022-09-02 22:00:01,15.73172386,0.0001379,53.219,130.6221,80.8654,91.8334,7.3885e-05,9.749e-05,0.0,0 STARLINK-4498,1 53434U 22097AY  22245.91668981  .00009749  00000-0  73885-4 0  9996,2 53434  53.2190 130.6221 0001379  80.8654  91.8334 15.73172386  1302,6727.974,91.535,350.767,348.911,0.0
53434.0,STARLINK-4498,PAYLOAD,2022-09-03 00:00:00,15.73167978,0.0001411,53.219,130.2103,78.6385,206.2208,0.0002281,0.00031468,0.0,0 STARLINK-4498,1 53434U 22097AY  22246.00001157  .00031468  00000-0  22810-3 0  9997,2 53434  53.2190 130.2103 0001411  78.6385 206.2208 15.73167978  4171,6727.986,91.535,350.801,348.902,0.0
53434.0,STARLINK-4498,PAYLOAD,2022-09-03 14:00:01,15.7320556,0.0001202,53.2188,127.3219,89.3511,261.1274,0.0005761,0.00081034,0.0,0 STARLINK-4498,1 53434U 22097AY  22246.58334491  .00081034  00000-0  57610-3 0  9990,2 53434  53.2188 127.3219 0001202  89.3511 261.1274 15.73205560  1306,6727.879,91.533,350.55300000000005,348.936,0.0
53434.0,STARLINK-4498,PAYLOAD,2022-09-03 22:00:00,15.73263956,0.0001092,53.2188,125.6744,80.7309,358.7199,-0.00051263,-0.00072144,0.0,0 STARLINK-4498,1 53434U 22097AY  22246.91667824 -.00072144  00000-0 -51263-3 0  9998,2 53434  53.2188 125.6744 0001092  80.7309 358.7199 15.73263956  1309,6727.7130000000025,91.529,350.31300000000016,348.843,0.0
53434.0,STARLINK-4498,PAYLOAD,2022-09-04 06:00:00,15.73278555,0.0001035,53.2188,124.0248,77.3631,91.0634,-0.00043391,-0.00061277,0.0,0 STARLINK-4498,1 53434U 22097AY  22247.25001157 -.00061277  00000-0 -43391-3 0  9995,2 53434  53.2188 124.0248 0001035  77.3631  91.0634 15.73278555  4370,6727.670999999999,91.529,350.233,348.84,0.0
53434.0,STARLINK-4498,PAYLOAD,2022-09-04 14:00:01,15.73203839,0.0001047,53.2192,122.3733,90.5503,166.9488,0.00014625,0.00019957,0.0,0 STARLINK-4498,1 53434U 22097AY  22247.58335648  .00019957  00000-0  14625-3 0  9990,2 53434  53.2192 122.3733 0001047  90.5503 166.9488 15.73203839  1305,6727.884,91.533,350.454,349.045,0.0
53434.0,STARLINK-4498,PAYLOAD,2022-09-04 16:00:00,15.73251399,0.0001041,53.2195,121.9612,90.434,279.2397,-0.00014297,-0.00020679,0.0,0 STARLINK-4498,1 53434U 22097AY  22247.66667824 -.00020679  00000-0 -14297-3 0  9993,2 53434  53.2195 121.9612 0001041  90.4340 279.2397 15.73251399  4439,6727.749,91.53,350.314,348.913,0.0
53434.0,STARLINK-4498,PAYLOAD,2022-09-04 20:00:01,15.73275609,9.56e-05,53.2195,121.1377,83.5039,150.6577,-0.00086874,-0.00121186,0.0,0 STARLINK-4498,1 53434U 22097AY  22247.83334491 -.00121186  00000-0 -86874-3 0  9998,2 53434  53.2195 121.1377 0000956  83.5039 150.6577 15.73275609  1306,6727.68,91.529,350.18800000000016,348.901,0.0
53434.0,STARLINK-4498,PAYLOAD,2022-09-05 04:00:00,15.73185309,7.730000000000001e-05,53.2193,119.4892,63.9486,259.18,0.00030113,0.00041825,0.0,0 STARLINK-4498,1 53434U 22097AY  22248.16667824  .00041825  00000-0  30113-3 0  9998,2 53434  53.2193 119.4892 0000773  63.9486 259.1800 15.73185309  4518,6727.937,91.534,350.32199999999995,349.282,0.0
